CCSDS_OMM_VERS = 2.0
CREATION_DATE  = 
ORIGINATOR     = 

OBJECT_NAME    = STARLINK-35322
OBJECT_ID      = 2025-253P
CENTER_NAME    = EARTH
REF_FRAME      = TEME
TIME_SYSTEM    = UTC
MEAN_ELEMENT_THEORY = SGP/SGP4

EPOCH          = 2025-11-13T18:00:02.999808
MEAN_MOTION    = 15.95982932
ECCENTRICITY   = .00018573
INCLINATION    = 42.9977
RA_OF_ASC_NODE = 157.1078
ARG_OF_PERICENTER = 265.3230
MEAN_ANOMALY   = 343.9626

EPHEMERIS_TYPE = 0
CLASSIFICATION_TYPE = U
NORAD_CAT_ID   = 66332
ELEMENT_SET_NO = 999
REV_AT_EPOCH   = 226
BSTAR          = -.36760597E-2
MEAN_MOTION_DOT = -.1557805E-1
MEAN_MOTION_DDOT = .70768894E-3

CCSDS_OMM_VERS = 2.0
CREATION_DATE  = 
ORIGINATOR     = 

OBJECT_NAME    = STARLINK-35400
OBJECT_ID      = 2025-253Q
CENTER_NAME    = EARTH
REF_FRAME      = TEME
TIME_SYSTEM    = UTC
MEAN_ELEMENT_THEORY = SGP/SGP4

EPOCH          = 2025-11-13T18:00:02.999808
MEAN_MOTION    = 15.96280157
ECCENTRICITY   = .00019751
INCLINATION    = 42.9973
RA_OF_ASC_NODE = 157.0909
ARG_OF_PERICENTER = 266.1029
MEAN_ANOMALY   = 349.7562

EPHEMERIS_TYPE = 0
CLASSIFICATION_TYPE = U
NORAD_CAT_ID   = 66333
ELEMENT_SET_NO = 999
REV_AT_EPOCH   = 226
BSTAR          = -.36550811E-2
MEAN_MOTION_DOT = -.1574112E-1
MEAN_MOTION_DDOT = .72359063E-3

CCSDS_OMM_VERS = 2.0
CREATION_DATE  = 
ORIGINATOR     = 

OBJECT_NAME    = STARLINK-35407
OBJECT_ID      = 2025-253R
CENTER_NAME    = EARTH
REF_FRAME      = TEME
TIME_SYSTEM    = UTC
MEAN_ELEMENT_THEORY = SGP/SGP4

EPOCH          = 2025-11-13T18:00:02.999808
MEAN_MOTION    = 15.96064728
ECCENTRICITY   = .00020542
INCLINATION    = 42.9980
RA_OF_ASC_NODE = 157.1040
ARG_OF_PERICENTER = 269.4062
MEAN_ANOMALY   = 341.6338

EPHEMERIS_TYPE = 0
CLASSIFICATION_TYPE = U
NORAD_CAT_ID   = 66334
ELEMENT_SET_NO = 999
REV_AT_EPOCH   = 226
BSTAR          = -.36822061E-2
MEAN_MOTION_DOT = -.1567334E-1
MEAN_MOTION_DDOT = .71627719E-3

CCSDS_OMM_VERS = 2.0
CREATION_DATE  = 
ORIGINATOR     = 

OBJECT_NAME    = STARLINK-35417
OBJECT_ID      = 2025-253S
CENTER_NAME    = EARTH
REF_FRAME      = TEME
TIME_SYSTEM    = UTC
MEAN_ELEMENT_THEORY = SGP/SGP4

EPOCH          = 2025-11-13T18:00:02.999808
MEAN_MOTION    = 15.96671036
ECCENTRICITY   = .00020239
INCLINATION    = 42.9977
RA_OF_ASC_NODE = 157.0697
ARG_OF_PERICENTER = 265.9232
MEAN_ANOMALY   = 358.4689

EPHEMERIS_TYPE = 0
CLASSIFICATION_TYPE = U
NORAD_CAT_ID   = 66335
ELEMENT_SET_NO = 999
REV_AT_EPOCH   = 226
BSTAR          = -.36165823E-2
MEAN_MOTION_DOT = -.1591106E-1
MEAN_MOTION_DDOT = .74103082E-3

CCSDS_OMM_VERS = 2.0
CREATION_DATE  = 
ORIGINATOR     = 

OBJECT_NAME    = STARLINK-35404
OBJECT_ID      = 2025-253T
CENTER_NAME    = EARTH
REF_FRAME      = TEME
TIME_SYSTEM    = UTC
MEAN_ELEMENT_THEORY = SGP/SGP4

EPOCH          = 2025-11-13T18:00:02.999808
MEAN_MOTION    = 15.96447894
ECCENTRICITY   = .00019557
INCLINATION    = 42.9976
RA_OF_ASC_NODE = 157.0827
ARG_OF_PERICENTER = 267.1368
MEAN_ANOMALY   = 352.3322

EPHEMERIS_TYPE = 0
CLASSIFICATION_TYPE = U
NORAD_CAT_ID   = 66336
ELEMENT_SET_NO = 999
REV_AT_EPOCH   = 236
BSTAR          = -.36483438E-2
MEAN_MOTION_DOT = -.1585568E-1
MEAN_MOTION_DDOT = .73458962E-3

CCSDS_OMM_VERS = 2.0
CREATION_DATE  = 
ORIGINATOR     = 

OBJECT_NAME    = STARLINK-34783
OBJECT_ID      = 2025-253U
CENTER_NAME    = EARTH
REF_FRAME      = TEME
TIME_SYSTEM    = UTC
MEAN_ELEMENT_THEORY = SGP/SGP4

EPOCH          = 2025-11-13T18:00:02.999808
MEAN_MOTION    = 15.96783012
ECCENTRICITY   = .00020234
INCLINATION    = 42.9977
RA_OF_ASC_NODE = 157.0637
ARG_OF_PERICENTER = 267.3574
MEAN_ANOMALY   = 359.4700

EPHEMERIS_TYPE = 0
CLASSIFICATION_TYPE = U
NORAD_CAT_ID   = 66337
ELEMENT_SET_NO = 999
REV_AT_EPOCH   = 231
BSTAR          = -.36044341E-2
MEAN_MOTION_DOT = -.159551E-1
MEAN_MOTION_DDOT = .74568108E-3

CCSDS_OMM_VERS = 2.0
CREATION_DATE  = 
ORIGINATOR     = 

OBJECT_NAME    = STARLINK-35477
OBJECT_ID      = 2025-253V
CENTER_NAME    = EARTH
REF_FRAME      = TEME
TIME_SYSTEM    = UTC
MEAN_ELEMENT_THEORY = SGP/SGP4

EPOCH          = 2025-11-13T18:00:02.999808
MEAN_MOTION    = 15.96607961
ECCENTRICITY   = .00019736
INCLINATION    = 42.9976
RA_OF_ASC_NODE = 157.0739
ARG_OF_PERICENTER = 267.2496
MEAN_ANOMALY   = 355.8570

EPHEMERIS_TYPE = 0
CLASSIFICATION_TYPE = U
NORAD_CAT_ID   = 66338
ELEMENT_SET_NO = 999
REV_AT_EPOCH   = 236
BSTAR          = -.36199106E-2
MEAN_MOTION_DOT = -.1587089E-1
MEAN_MOTION_DDOT = .73710573E-3

CCSDS_OMM_VERS = 2.0
CREATION_DATE  = 
ORIGINATOR     = 

OBJECT_NAME    = STARLINK-35443
OBJECT_ID      = 2025-253W
CENTER_NAME    = EARTH
REF_FRAME      = TEME
TIME_SYSTEM    = UTC
MEAN_ELEMENT_THEORY = SGP/SGP4

EPOCH          = 2025-11-13T18:00:02.999808
MEAN_MOTION    = 15.97132865
ECCENTRICITY   = .00020371
INCLINATION    = 42.9974
RA_OF_ASC_NODE = 157.0405
ARG_OF_PERICENTER = 265.4430
MEAN_ANOMALY   = 10.3969

EPHEMERIS_TYPE = 0
CLASSIFICATION_TYPE = U
NORAD_CAT_ID   = 66339
ELEMENT_SET_NO = 999
REV_AT_EPOCH   = 231
BSTAR          = -.3736329E-2
MEAN_MOTION_DOT = -.1684956E-1
MEAN_MOTION_DDOT = .8277292E-3

CCSDS_OMM_VERS = 2.0
CREATION_DATE  = 
ORIGINATOR     = 

OBJECT_NAME    = STARLINK-35218
OBJECT_ID      = 2025-253X
CENTER_NAME    = EARTH
REF_FRAME      = TEME
TIME_SYSTEM    = UTC
MEAN_ELEMENT_THEORY = SGP/SGP4

EPOCH          = 2025-11-13T18:00:02.999808
MEAN_MOTION    = 15.96536597
ECCENTRICITY   = .0002007
INCLINATION    = 42.9976
RA_OF_ASC_NODE = 157.0775
ARG_OF_PERICENTER = 266.6355
MEAN_ANOMALY   = 354.7766

EPHEMERIS_TYPE = 0
CLASSIFICATION_TYPE = U
NORAD_CAT_ID   = 66340
ELEMENT_SET_NO = 999
REV_AT_EPOCH   = 236
BSTAR          = -.36356521E-2
MEAN_MOTION_DOT = -.1587755E-1
MEAN_MOTION_DDOT = .73713196E-3

CCSDS_OMM_VERS = 2.0
CREATION_DATE  = 
ORIGINATOR     = 

OBJECT_NAME    = STARLINK-35522
OBJECT_ID      = 2025-253Y
CENTER_NAME    = EARTH
REF_FRAME      = TEME
TIME_SYSTEM    = UTC
MEAN_ELEMENT_THEORY = SGP/SGP4

EPOCH          = 2025-11-13T18:00:02.999808
MEAN_MOTION    = 15.96190395
ECCENTRICITY   = .00019284
INCLINATION    = 42.9983
RA_OF_ASC_NODE = 157.0971
ARG_OF_PERICENTER = 265.9504
MEAN_ANOMALY   = 347.9937

EPHEMERIS_TYPE = 0
CLASSIFICATION_TYPE = U
NORAD_CAT_ID   = 66341
ELEMENT_SET_NO = 999
REV_AT_EPOCH   = 236
BSTAR          = -.36543951E-2
MEAN_MOTION_DOT = -.1566189E-1
MEAN_MOTION_DDOT = .71623771E-3

CCSDS_OMM_VERS = 2.0
CREATION_DATE  = 
ORIGINATOR     = 

OBJECT_NAME    = STARLINK-35535
OBJECT_ID      = 2025-253Z
CENTER_NAME    = EARTH
REF_FRAME      = TEME
TIME_SYSTEM    = UTC
MEAN_ELEMENT_THEORY = SGP/SGP4

EPOCH          = 2025-11-13T18:00:02.999808
MEAN_MOTION    = 15.97039035
ECCENTRICITY   = .00020742
INCLINATION    = 42.9976
RA_OF_ASC_NODE = 157.0450
ARG_OF_PERICENTER = 267.4043
MEAN_ANOMALY   = 6.6382

EPHEMERIS_TYPE = 0
CLASSIFICATION_TYPE = U
NORAD_CAT_ID   = 66342
ELEMENT_SET_NO = 999
REV_AT_EPOCH   = 226
BSTAR          = -.37001451E-2
MEAN_MOTION_DOT = -.1660337E-1
MEAN_MOTION_DDOT = .80470983E-3

CCSDS_OMM_VERS = 2.0
CREATION_DATE  = 
ORIGINATOR     = 

OBJECT_NAME    = STARLINK-35467
OBJECT_ID      = 2025-253AA
CENTER_NAME    = EARTH
REF_FRAME      = TEME
TIME_SYSTEM    = UTC
MEAN_ELEMENT_THEORY = SGP/SGP4

EPOCH          = 2025-11-13T18:00:02.999808
MEAN_MOTION    = 15.96936248
ECCENTRICITY   = .00019828
INCLINATION    = 42.9974
RA_OF_ASC_NODE = 157.0498
ARG_OF_PERICENTER = 266.4698
MEAN_ANOMALY   = 5.6519

EPHEMERIS_TYPE = 0
CLASSIFICATION_TYPE = U
NORAD_CAT_ID   = 66343
ELEMENT_SET_NO = 999
REV_AT_EPOCH   = 226
BSTAR          = -.36597156E-2
MEAN_MOTION_DOT = -.1633218E-1
MEAN_MOTION_DDOT = .7797603E-3

