STARLINK-35322          
1 66332U 25253P   25317.75003472 -.01557805  70769-3 -36761-2 0  9993
2 66332  42.9977 157.1078 0001857 265.3230 343.9626 15.95982932  2267
STARLINK-35400          
1 66333U 25253Q   25317.75003472 -.01574112  72359-3 -36551-2 0  9998
2 66333  42.9973 157.0909 0001975 266.1029 349.7562 15.96280157  2266
STARLINK-35407          
1 66334U 25253R   25317.75003472 -.01567334  71628-3 -36822-2 0  9996
2 66334  42.9980 157.1040 0002054 269.4062 341.6338 15.96064728  2260
STARLINK-35417          
1 66335U 25253S   25317.75003472 -.01591106  74103-3 -36166-2 0  9993
2 66335  42.9977 157.0697 0002023 265.9232 358.4689 15.96671036  2261
STARLINK-35404          
1 66336U 25253T   25317.75003472 -.01585568  73459-3 -36483-2 0  9994
2 66336  42.9976 157.0827 0001955 267.1368 352.3322 15.96447894  2364
STARLINK-34783          
1 66337U 25253U   25317.75003472 -.01595510  74568-3 -36044-2 0  9998
2 66337  42.9977 157.0637 0002023 267.3574 359.4700 15.96783012  2311
STARLINK-35477          
1 66338U 25253V   25317.75003472 -.01587089  73711-3 -36199-2 0  9991
2 66338  42.9976 157.0739 0001973 267.2496 355.8570 15.96607961  2367
STARLINK-35443          
1 66339U 25253W   25317.75003472 -.01684956  82773-3 -37363-2 0  9995
2 66339  42.9974 157.0405 0002037 265.4430  10.3969 15.97132865  2313
STARLINK-35218          
1 66340U 25253X   25317.75003472 -.01587755  73713-3 -36357-2 0  9992
2 66340  42.9976 157.0775 0002007 266.6355 354.7766 15.96536597  2367
STARLINK-35522          
1 66341U 25253Y   25317.75003472 -.01566189  71624-3 -36544-2 0  9998
2 66341  42.9983 157.0971 0001928 265.9504 347.9937 15.96190395  2369
STARLINK-35535          
1 66342U 25253Z   25317.75003472 -.01660337  80471-3 -37001-2 0  9998
2 66342  42.9976 157.0450 0002074 267.4043   6.6382 15.97039035  2268
STARLINK-35467          
1 66343U 25253AA  25317.75003472 -.01633218  77976-3 -36597-2 0  9992
2 66343  42.9974 157.0498 0001982 266.4698   5.6519 15.96936248  2263
